start=new Date('2022-05-28T00:00:00.000Z').valueOf();
sats=[{"ARG_OF_PERICENTER":"39.5734","COUNTRY_CODE":"US","RCS_SIZE":"LARGE","APOAPSIS":"541.052","BSTAR":"-0.00316430000000","TLE_LINE2":"2 49763  53.2186 222.1231 0001973  39.5734 246.9673 15.08859003  1300","MEAN_ELEMENT_THEORY":"SGP4","DECAY_DATE":null,"LAUNCH_DATE":"2021-12-02","GP_ID":"204717594","TIME_SYSTEM":"UTC","MEAN_MOTION_DDOT":"0.0000000000000","ECCENTRICITY":"0.00019730","INCLINATION":"53.2186","EPHEMERIS_TYPE":"0","MEAN_MOTION_DOT":"-0.00050324","PERIOD":"95.436","OBJECT_NAME":"STARLINK-3198","FILE":"3468079","REV_AT_EPOCH":"130","CLASSIFICATION_TYPE":"U","EPOCH":"2022-05-27T22:00:01.999584","ELEMENT_SET_NO":"999","TLE_LINE1":"1 49763U 21115AR  22147.91668981 -.00050324  00000-0 -31643-2 0  9998","MEAN_MOTION":"15.08859003","OBJECT_ID":"2021-115AR","PERIAPSIS":"538.322","REF_FRAME":"TEME","SITE":"AFETR","NORAD_CAT_ID":"49763","MEAN_ANOMALY":"246.9673","CENTER_NAME":"EARTH","SEMIMAJOR_AXIS":"6917.822","OBJECT_TYPE":"PAYLOAD","RA_OF_ASC_NODE":"222.1231"},{"EPOCH":"2022-05-27T22:00:01.999584","CLASSIFICATION_TYPE":"U","REV_AT_EPOCH":"130","FILE":"3468079","PERIOD":"95.436","OBJECT_NAME":"STARLINK-3206","NORAD_CAT_ID":"49764","SITE":"AFETR","REF_FRAME":"TEME","OBJECT_ID":"2021-115AS","PERIAPSIS":"538.233","TLE_LINE1":"1 49764U 21115AS  22147.91668981 -.00013335  00000-0 -82065-3 0  9995","ELEMENT_SET_NO":"999","MEAN_MOTION":"15.08867344","SEMIMAJOR_AXIS":"6917.797","CENTER_NAME":"EARTH","MEAN_ANOMALY":"152.0214","RA_OF_ASC_NODE":"222.1376","OBJECT_TYPE":"PAYLOAD","RCS_SIZE":"LARGE","COUNTRY_CODE":"US","ARG_OF_PERICENTER":"34.4830","LAUNCH_DATE":"2021-12-02","DECAY_DATE":null,"MEAN_ELEMENT_THEORY":"SGP4","TLE_LINE2":"2 49764  53.2177 222.1376 0002066  34.4830 152.0214 15.08867344  1301","APOAPSIS":"541.091","BSTAR":"-0.00082065000000","MEAN_MOTION_DDOT":"0.0000000000000","GP_ID":"204717838","TIME_SYSTEM":"UTC","MEAN_MOTION_DOT":"-0.00013335","EPHEMERIS_TYPE":"0","ECCENTRICITY":"0.00020660","INCLINATION":"53.2177"},{"SITE":"AFETR","REF_FRAME":"TEME","NORAD_CAT_ID":"49765","PERIAPSIS":"538.263","OBJECT_ID":"2021-115AT","TLE_LINE1":"1 49765U 21115AT  22147.91668981 -.00054066  00000-0 -34022-2 0  9991","ELEMENT_SET_NO":"999","MEAN_MOTION":"15.08864991","EPOCH":"2022-05-27T22:00:01.999584","CLASSIFICATION_TYPE":"U","REV_AT_EPOCH":"130","OBJECT_NAME":"STARLINK-3227","PERIOD":"95.436","FILE":"3468079","RA_OF_ASC_NODE":"222.1319","OBJECT_TYPE":"PAYLOAD","SEMIMAJOR_AXIS":"6917.804","CENTER_NAME":"EARTH","MEAN_ANOMALY":"213.7743","LAUNCH_DATE":"2021-12-02","DECAY_DATE":null,"TLE_LINE2":"2 49765  53.2181 222.1319 0002032  32.8232 213.7743 15.08864991  1302","MEAN_ELEMENT_THEORY":"SGP4","APOAPSIS":"541.075","BSTAR":"-0.00340220000000","RCS_SIZE":"LARGE","COUNTRY_CODE":"US","ARG_OF_PERICENTER":"32.8232","MEAN_MOTION_DOT":"-0.00054066","EPHEMERIS_TYPE":"0","ECCENTRICITY":"0.00020320","INCLINATION":"53.2181","MEAN_MOTION_DDOT":"0.0000000000000","GP_ID":"204716596","TIME_SYSTEM":"UTC"},{"SEMIMAJOR_AXIS":"6917.883","MEAN_ANOMALY":"136.1298","CENTER_NAME":"EARTH","RA_OF_ASC_NODE":"222.1429","OBJECT_TYPE":"PAYLOAD","CLASSIFICATION_TYPE":"U","EPOCH":"2022-05-27T22:00:01.999584","FILE":"3468079","OBJECT_NAME":"STARLINK-3190","PERIOD":"95.438","REV_AT_EPOCH":"130","OBJECT_ID":"2021-115AU","PERIAPSIS":"538.245","NORAD_CAT_ID":"49766","REF_FRAME":"TEME","SITE":"AFETR","MEAN_MOTION":"15.08839297","TLE_LINE1":"1 49766U 21115AU  22147.91668981 -.00014083  00000-0 -86842-3 0  9995","ELEMENT_SET_NO":"999","TIME_SYSTEM":"UTC","GP_ID":"204716846","MEAN_MOTION_DDOT":"0.0000000000000","EPHEMERIS_TYPE":"0","MEAN_MOTION_DOT":"-0.00014083","ECCENTRICITY":"0.00021720","INCLINATION":"53.2189","RCS_SIZE":"LARGE","ARG_OF_PERICENTER":"30.3600","COUNTRY_CODE":"US","DECAY_DATE":null,"LAUNCH_DATE":"2021-12-02","APOAPSIS":"541.250","BSTAR":"-0.00086842000000","MEAN_ELEMENT_THEORY":"SGP4","TLE_LINE2":"2 49766  53.2189 222.1429 0002172  30.3600 136.1298 15.08839297  1304"},{"APOAPSIS":"541.123","BSTAR":"-0.00084546000000","TLE_LINE2":"2 49767  53.2197 222.1427 0002042  37.3397 169.1933 15.08851342  1305","MEAN_ELEMENT_THEORY":"SGP4","DECAY_DATE":null,"LAUNCH_DATE":"2021-12-02","ARG_OF_PERICENTER":"37.3397","COUNTRY_CODE":"US","RCS_SIZE":"LARGE","ECCENTRICITY":"0.00020420","INCLINATION":"53.2197","EPHEMERIS_TYPE":"0","MEAN_MOTION_DOT":"-0.00013723","TIME_SYSTEM":"UTC","GP_ID":"204718094","MEAN_MOTION_DDOT":"0.0000000000000","TLE_LINE1":"1 49767U 21115AV  22147.91668981 -.00013723  00000-0 -84546-3 0  9995","ELEMENT_SET_NO":"999","MEAN_MOTION":"15.08851342","PERIAPSIS":"538.298","OBJECT_ID":"2021-115AV","SITE":"AFETR","REF_FRAME":"TEME","NORAD_CAT_ID":"49767","OBJECT_NAME":"STARLINK-3192","PERIOD":"95.437","FILE":"3468079","REV_AT_EPOCH":"130","CLASSIFICATION_TYPE":"U","EPOCH":"2022-05-27T22:00:01.999584","OBJECT_TYPE":"PAYLOAD","RA_OF_ASC_NODE":"222.1427","MEAN_ANOMALY":"169.1933","CENTER_NAME":"EARTH","SEMIMAJOR_AXIS":"6917.846"},{"COUNTRY_CODE":"US","ARG_OF_PERICENTER":"34.9351","RCS_SIZE":"LARGE","TLE_LINE2":"2 49768  53.2175 222.1379 0001853  34.9351  91.5405 15.08855254  1308","MEAN_ELEMENT_THEORY":"SGP4","APOAPSIS":"540.981","BSTAR":"0.00359950000000","LAUNCH_DATE":"2021-12-02","DECAY_DATE":null,"MEAN_MOTION_DDOT":"0.0000000000000","TIME_SYSTEM":"UTC","GP_ID":"204718338","INCLINATION":"53.2175","ECCENTRICITY":"0.00018530","MEAN_MOTION_DOT":"0.00057490","EPHEMERIS_TYPE":"0","REV_AT_EPOCH":"130","OBJECT_NAME":"STARLINK-3196","PERIOD":"95.437","FILE":"3468079","EPOCH":"2022-05-27T22:00:01.999584","CLASSIFICATION_TYPE":"U","TLE_LINE1":"1 49768U 21115AW  22147.91668981  .00057490  00000-0  35995-2 0  9996","ELEMENT_SET_NO":"999","MEAN_MOTION":"15.08855254","REF_FRAME":"TEME","SITE":"AFETR","NORAD_CAT_ID":"49768","PERIAPSIS":"538.417","OBJECT_ID":"2021-115AW","CENTER_NAME":"EARTH","MEAN_ANOMALY":"91.5405","SEMIMAJOR_AXIS":"6917.834","OBJECT_TYPE":"PAYLOAD","RA_OF_ASC_NODE":"222.1379"},{"SEMIMAJOR_AXIS":"6917.796","CENTER_NAME":"EARTH","MEAN_ANOMALY":"115.7287","RA_OF_ASC_NODE":"222.1451","OBJECT_TYPE":"PAYLOAD","EPOCH":"2022-05-27T22:00:01.999584","CLASSIFICATION_TYPE":"U","REV_AT_EPOCH":"130","FILE":"3468079","PERIOD":"95.436","OBJECT_NAME":"STARLINK-3208","NORAD_CAT_ID":"49769","REF_FRAME":"TEME","SITE":"AFETR","OBJECT_ID":"2021-115AX","PERIAPSIS":"537.943","TLE_LINE1":"1 49769U 21115AX  22147.91668981 -.00011849  00000-0 -72699-3 0  9990","ELEMENT_SET_NO":"999","MEAN_MOTION":"15.08867687","MEAN_MOTION_DDOT":"0.0000000000000","TIME_SYSTEM":"UTC","GP_ID":"204717096","MEAN_MOTION_DOT":"-0.00011849","EPHEMERIS_TYPE":"0","INCLINATION":"53.2195","ECCENTRICITY":"0.00024830","RCS_SIZE":"LARGE","COUNTRY_CODE":"US","ARG_OF_PERICENTER":"30.7316","LAUNCH_DATE":"2021-12-02","DECAY_DATE":null,"MEAN_ELEMENT_THEORY":"SGP4","TLE_LINE2":"2 49769  53.2195 222.1451 0002483  30.7316 115.7287 15.08867687  1307","APOAPSIS":"541.378","BSTAR":"-0.00072699000000"},{"BSTAR":"0.00003277000000","APOAPSIS":"541.277","TLE_LINE2":"2 49770  53.2181 222.2397 0002225  34.2729 325.8407 15.08842471 28193","MEAN_ELEMENT_THEORY":"SGP4","DECAY_DATE":null,"LAUNCH_DATE":"2021-12-02","ARG_OF_PERICENTER":"34.2729","COUNTRY_CODE":"US","RCS_SIZE":"LARGE","ECCENTRICITY":"0.00022250","INCLINATION":"53.2181","EPHEMERIS_TYPE":"0","MEAN_MOTION_DOT":"0.00000233","GP_ID":"204717346","TIME_SYSTEM":"UTC","MEAN_MOTION_DDOT":"0.0000000000000","MEAN_MOTION":"15.08842471","TLE_LINE1":"1 49770U 21115AY  22147.89710380  .00000233  00000-0  32770-4 0  9990","ELEMENT_SET_NO":"999","PERIAPSIS":"538.199","OBJECT_ID":"2021-115AY","REF_FRAME":"TEME","SITE":"AFETR","NORAD_CAT_ID":"49770","OBJECT_NAME":"STARLINK-3191","PERIOD":"95.437","FILE":"3468079","REV_AT_EPOCH":"2819","CLASSIFICATION_TYPE":"U","EPOCH":"2022-05-27T21:31:49.768320","OBJECT_TYPE":"PAYLOAD","RA_OF_ASC_NODE":"222.2397","MEAN_ANOMALY":"325.8407","CENTER_NAME":"EARTH","SEMIMAJOR_AXIS":"6917.873"},{"MEAN_MOTION_DDOT":"0.0000000000000","GP_ID":"204717595","TIME_SYSTEM":"UTC","MEAN_MOTION_DOT":"-0.00000738","EPHEMERIS_TYPE":"0","ECCENTRICITY":"0.00021280","INCLINATION":"53.2165","RCS_SIZE":"LARGE","COUNTRY_CODE":"US","ARG_OF_PERICENTER":"40.1002","LAUNCH_DATE":"2021-12-02","DECAY_DATE":null,"TLE_LINE2":"2 49771  53.2165 222.2162 0002128  40.1002 320.0147 15.08823059 27073","MEAN_ELEMENT_THEORY":"SGP4","APOAPSIS":"541.269","BSTAR":"-0.00002828000000","SEMIMAJOR_AXIS":"6917.932","CENTER_NAME":"EARTH","MEAN_ANOMALY":"320.0147","RA_OF_ASC_NODE":"222.2162","OBJECT_TYPE":"PAYLOAD","EPOCH":"2022-05-27T21:37:09.216768","CLASSIFICATION_TYPE":"U","REV_AT_EPOCH":"2707","PERIOD":"95.439","OBJECT_NAME":"STARLINK-3201","FILE":"3468079","REF_FRAME":"TEME","SITE":"AFETR","NORAD_CAT_ID":"49771","PERIAPSIS":"538.325","OBJECT_ID":"2021-115AZ","TLE_LINE1":"1 49771U 21115AZ  22147.90080112 -.00000738  00000-0 -28280-4 0  9999","ELEMENT_SET_NO":"999","MEAN_MOTION":"15.08823059"},{"RA_OF_ASC_NODE":"332.4273","OBJECT_TYPE":"PAYLOAD","SEMIMAJOR_AXIS":"6917.827","CENTER_NAME":"EARTH","MEAN_ANOMALY":"322.4025","REF_FRAME":"TEME","SITE":"AFWTR","NORAD_CAT_ID":"50156","PERIAPSIS":"538.164","OBJECT_ID":"2021-125A","MEAN_MOTION":"15.08857536","TLE_LINE1":"1 50156U 21125A   22147.85113841  .00010500  00000-0  67650-3 0  9998","ELEMENT_SET_NO":"999","EPOCH":"2022-05-27T20:25:38.358624","CLASSIFICATION_TYPE":"U","REV_AT_EPOCH":"2802","OBJECT_NAME":"STARLINK-3317","PERIOD":"95.436","FILE":"3468079","MEAN_MOTION_DOT":"0.00010500","EPHEMERIS_TYPE":"0","ECCENTRICITY":"0.00022090","INCLINATION":"53.2180","MEAN_MOTION_DDOT":"0.0000000000000","GP_ID":"204717864","TIME_SYSTEM":"UTC","LAUNCH_DATE":"2021-12-18","DECAY_DATE":null,"TLE_LINE2":"2 50156  53.2180 332.4273 0002209  37.7121 322.4025 15.08857536 28024","MEAN_ELEMENT_THEORY":"SGP4","BSTAR":"0.00067650000000","APOAPSIS":"541.220","RCS_SIZE":"LARGE","COUNTRY_CODE":"US","ARG_OF_PERICENTER":"37.7121"}];
